*******************************************************************************
Ephemeris / WWW_USER Mon Mar 10 07:08:38 2025 Pasadena, USA      / Horizons    
*******************************************************************************
Target body name: (2018 OZ)                       {source: JPL#6}
Center body name: Earth (399)                     {source: DE441}
Center-site name: Mauna Kea
*******************************************************************************
Start time      : A.D. 2018-Nov-30 03:51:00.0000 UT      
Stop  time      : A.D. 2018-Nov-30 16:29:00.0000 UT      
Step-size       : 1 minutes
*******************************************************************************
Target pole/equ : undefined
Target radii    : undefined                                                    
Center geodetic : 204.5278, 19.8260847, 4.21024   {E-lon(deg),Lat(deg),Alt(km)}
Center cylindric: 204.5278, 6006.35451, 2151.0229 {E-lon(deg),Dxy(km),Dz(km)}
Center pole/equ : ITRF93                          {East-longitude positive}
Center radii    : 6378.137, 6378.137, 6356.752 km {Equator_a, b, pole_c}       
Target primary  : Sun
Vis. interferer : MOON (R_eq= 1737.400) km        {source: DE441}
Rel. light bend : Sun                             {source: DE441}
Rel. lght bnd GM: 1.3271E+11 km^3/s^2                                          
Small-body perts: Yes                             {source: SB441-N16}
Atmos refraction: NO (AIRLESS)
RA format       : HMS
Time format     : CAL 
Calendar mode   : Mixed Julian/Gregorian
RTS-only print  : NO       
EOP file        : eop.250307.p250603                                           
EOP coverage    : DATA-BASED 1962-JAN-20 TO 2025-MAR-07. PREDICTS-> 2025-JUN-02
Units conversion: 1 au= 149597870.700 km, c= 299792.458 km/s, 1 day= 86400.0 s 
Table cut-offs 1: Elevation (-90.0deg=NO ),Airmass (>38.000=NO), Daylight (YES)
Table cut-offs 2: Solar elongation (  0.0,180.0=NO ),Local Hour Angle( 0.0=NO )
Table cut-offs 3: RA/DEC angular rate (     0.0=NO )                           
*******************************************************************************
Initial IAU76/J2000 heliocentric ecliptic osculating elements (au, days, deg.):
  EPOCH=  2458323.5 ! 2018-Jul-24.00 (TDB)         Residual RMS= .14478        
   EC= .2444891433359997   QR= .7813773137930096   TP= 2458414.1453434308      
   OM= 132.5941973996665   W=  282.5797798661226   IN= 11.86066121595313       
  Equivalent ICRF heliocentric cartesian coordinates (au, au/d):
   X= 5.818664496311505E-01  Y=-8.413793559776328E-01  Z=-3.233166781784031E-01
  VX= 1.092981696788880E-02 VY= 1.198494789184266E-02 VZ= 1.554952570596135E-03
Asteroid physical parameters (km, seconds, rotational period in hours):        
   GM= n.a.                RAD= n.a.               ROTPER= n.a.                
   H= 24.9                 G= .150                 B-V= n.a.                   
                           ALBEDO= n.a.            STYP= n.a.                  
*******************************************************************************
 Date__(UT)__HR:MN     R.A._________(ICRF)_________DEC
******************************************************
$$SOE
 2018-Nov-30 16:09 Nm  12 31 24.470029 -08 17 24.90243
 2018-Nov-30 16:10 Nm  12 31 24.608754 -08 17 24.96359
 2018-Nov-30 16:11 Nm  12 31 24.747471 -08 17 25.02473
 2018-Nov-30 16:12 Nm  12 31 24.886181 -08 17 25.08585
 2018-Nov-30 16:13 Nm  12 31 25.024883 -08 17 25.14695
 2018-Nov-30 16:14 Nm  12 31 25.163578 -08 17 25.20801
 2018-Nov-30 16:15 Nm  12 31 25.302265 -08 17 25.26906
 2018-Nov-30 16:16 Nm  12 31 25.440944 -08 17 25.33008
 2018-Nov-30 16:17 Cm  12 31 25.579617 -08 17 25.39107
 2018-Nov-30 16:18 Cm  12 31 25.718282 -08 17 25.45205
 2018-Nov-30 16:19 Cm  12 31 25.856939 -08 17 25.51299
 2018-Nov-30 16:20 Cm  12 31 25.995590 -08 17 25.57391
 2018-Nov-30 16:21 Cm  12 31 26.134233 -08 17 25.63481
 2018-Nov-30 16:22 Cm  12 31 26.272870 -08 17 25.69568
 2018-Nov-30 16:23 Cm  12 31 26.411499 -08 17 25.75653
 2018-Nov-30 16:24 Cm  12 31 26.550121 -08 17 25.81735
 2018-Nov-30 16:25 Cm  12 31 26.688737 -08 17 25.87815
 2018-Nov-30 16:26 Cm  12 31 26.827345 -08 17 25.93892
 2018-Nov-30 16:27 Cm  12 31 26.965947 -08 17 25.99966
 2018-Nov-30 16:28 Cm  12 31 27.104542 -08 17 26.06038
 2018-Nov-30 16:29 Cm  12 31 27.243130 -08 17 26.12108
